1 45625U 20034B   25352.58187281  .00004593  00000+0  19702-3 0  9990
2 45625  97.5503 143.1581 0012981 340.2361  19.8371 15.23174662308643
